start=new Date('2021-12-23T00:00:00.000Z').valueOf();
sats=[{"PERIAPSIS":"546.268","ARG_OF_PERICENTER":"76.1447","EPHEMERIS_TYPE":"0","RCS_SIZE":"LARGE","ELEMENT_SET_NO":"999","OBJECT_ID":"2020-001AN","MEAN_MOTION_DDOT":"0.0000000000000","TLE_LINE1":"1 44950U 20001AN  21356.52008354  .00000221  00000-0  33741-4 0  9996","GP_ID":"192216402","BSTAR":"0.00003374100000","REF_FRAME":"TEME","MEAN_MOTION":"15.06389263","NORAD_CAT_ID":"44950","PERIOD":"95.593","RA_OF_ASC_NODE":"31.7345","FILE":"3247523","CLASSIFICATION_TYPE":"U","COUNTRY_CODE":"US","MEAN_ANOMALY":"283.9699","REV_AT_EPOCH":"10828","ECCENTRICITY":"0.00014130","OBJECT_TYPE":"PAYLOAD","APOAPSIS":"548.225","TLE_LINE2":"2 44950  53.0548  31.7345 0001413  76.1447 283.9699 15.06389263108288","MEAN_MOTION_DOT":"0.00000221","OBJECT_NAME":"STARLINK-1125","SEMIMAJOR_AXIS":"6925.381","CENTER_NAME":"EARTH","TIME_SYSTEM":"UTC","LAUNCH_DATE":"2020-01-07","INCLINATION":"53.0548","MEAN_ELEMENT_THEORY":"SGP4","SITE":"AFETR","EPOCH":"2021-12-22T12:28:55.217856","DECAY_DATE":null},{"TLE_LINE1":"1 44951U 20001AP  21356.51510495  .00014541  00000-0  92987-3 0  9996","MEAN_MOTION_DDOT":"0.0000000000000","BSTAR":"0.00092987000000","GP_ID":"192216654","REF_FRAME":"TEME","ARG_OF_PERICENTER":"52.3095","EPHEMERIS_TYPE":"0","PERIAPSIS":"538.742","RCS_SIZE":"LARGE","OBJECT_ID":"2020-001AP","ELEMENT_SET_NO":"999","CLASSIFICATION_TYPE":"U","COUNTRY_CODE":"US","MEAN_ANOMALY":"307.8028","MEAN_MOTION":"15.08834038","NORAD_CAT_ID":"44951","PERIOD":"95.438","RA_OF_ASC_NODE":"27.3111","FILE":"3247523","OBJECT_NAME":"STARLINK-1126","SEMIMAJOR_AXIS":"6917.899","REV_AT_EPOCH":"10961","ECCENTRICITY":"0.00014770","OBJECT_TYPE":"PAYLOAD","TLE_LINE2":"2 44951  53.0042  27.3111 0001477  52.3095 307.8028 15.08834038109612","APOAPSIS":"540.785","MEAN_MOTION_DOT":"0.00014541","MEAN_ELEMENT_THEORY":"SGP4","SITE":"AFETR","DECAY_DATE":null,"EPOCH":"2021-12-22T12:21:45.067680","CENTER_NAME":"EARTH","TIME_SYSTEM":"UTC","LAUNCH_DATE":"2020-01-07","INCLINATION":"53.0042"},{"MEAN_MOTION":"15.06395714","PERIOD":"95.592","NORAD_CAT_ID":"44952","RA_OF_ASC_NODE":"31.5826","FILE":"3247523","CLASSIFICATION_TYPE":"U","COUNTRY_CODE":"US","MEAN_ANOMALY":"294.1790","PERIAPSIS":"546.289","EPHEMERIS_TYPE":"0","ARG_OF_PERICENTER":"65.9341","RCS_SIZE":"LARGE","OBJECT_ID":"2020-001AQ","ELEMENT_SET_NO":"999","MEAN_MOTION_DDOT":"0.0000000000000","TLE_LINE1":"1 44952U 20001AQ  21356.55326250 -.00001068  00000-0 -52788-4 0  9993","GP_ID":"192217405","BSTAR":"-0.00005278800000","REF_FRAME":"TEME","CENTER_NAME":"EARTH","TIME_SYSTEM":"UTC","LAUNCH_DATE":"2020-01-07","INCLINATION":"53.0556","MEAN_ELEMENT_THEORY":"SGP4","SITE":"AFETR","EPOCH":"2021-12-22T13:16:41.880000","DECAY_DATE":null,"REV_AT_EPOCH":"10829","OBJECT_TYPE":"PAYLOAD","ECCENTRICITY":"0.00013540","APOAPSIS":"548.164","TLE_LINE2":"2 44952  53.0556  31.5826 0001354  65.9341 294.1790 15.06395714108299","MEAN_MOTION_DOT":"-0.00001068","OBJECT_NAME":"STARLINK-1117","SEMIMAJOR_AXIS":"6925.362"},{"MEAN_MOTION":"15.06389631","NORAD_CAT_ID":"44953","PERIOD":"95.593","RA_OF_ASC_NODE":"31.8198","FILE":"3247523","CLASSIFICATION_TYPE":"U","COUNTRY_CODE":"US","MEAN_ANOMALY":"282.6999","EPHEMERIS_TYPE":"0","ARG_OF_PERICENTER":"77.4160","PERIAPSIS":"546.190","RCS_SIZE":"LARGE","ELEMENT_SET_NO":"999","OBJECT_ID":"2020-001AR","TLE_LINE1":"1 44953U 20001AR  21356.50439430 -.00001196  00000-0 -61398-4 0  9993","MEAN_MOTION_DDOT":"0.0000000000000","BSTAR":"-0.00006139800000","GP_ID":"192216153","REF_FRAME":"TEME","CENTER_NAME":"EARTH","LAUNCH_DATE":"2020-01-07","TIME_SYSTEM":"UTC","INCLINATION":"53.0491","MEAN_ELEMENT_THEORY":"SGP4","SITE":"AFETR","DECAY_DATE":null,"EPOCH":"2021-12-22T12:06:19.667520","REV_AT_EPOCH":"10957","OBJECT_TYPE":"PAYLOAD","ECCENTRICITY":"0.00015240","TLE_LINE2":"2 44953  53.0491  31.8198 0001524  77.4160 282.6999 15.06389631109575","APOAPSIS":"548.301","MEAN_MOTION_DOT":"-0.00001196","OBJECT_NAME":"STARLINK-1124","SEMIMAJOR_AXIS":"6925.380"},{"MEAN_ELEMENT_THEORY":"SGP4","DECAY_DATE":null,"EPOCH":"2021-12-22T12:26:16.231488","SITE":"AFETR","TIME_SYSTEM":"UTC","LAUNCH_DATE":"2020-01-07","CENTER_NAME":"EARTH","INCLINATION":"53.0536","OBJECT_NAME":"STARLINK-1066","SEMIMAJOR_AXIS":"6925.391","ECCENTRICITY":"0.00016270","OBJECT_TYPE":"PAYLOAD","REV_AT_EPOCH":"10851","MEAN_MOTION_DOT":"-0.00001915","TLE_LINE2":"2 44954  53.0536  11.7373 0001627  65.8040 294.3119 15.06386275108518","APOAPSIS":"548.382","COUNTRY_CODE":"US","CLASSIFICATION_TYPE":"U","MEAN_ANOMALY":"294.3119","NORAD_CAT_ID":"44954","PERIOD":"95.593","MEAN_MOTION":"15.06386275","FILE":"3247523","RA_OF_ASC_NODE":"11.7373","BSTAR":"-0.00010976000000","GP_ID":"192215902","TLE_LINE1":"1 44954U 20001AS  21356.51824342 -.00001915  00000-0 -10976-3 0  9999","MEAN_MOTION_DDOT":"0.0000000000000","REF_FRAME":"TEME","RCS_SIZE":"LARGE","ARG_OF_PERICENTER":"65.8040","EPHEMERIS_TYPE":"0","PERIAPSIS":"546.129","ELEMENT_SET_NO":"999","OBJECT_ID":"2020-001AS"},{"REF_FRAME":"TEME","BSTAR":"-0.00003139100000","GP_ID":"192217155","TLE_LINE1":"1 44955U 20001AT  21356.52561476 -.00000749  00000-0 -31391-4 0  9996","MEAN_MOTION_DDOT":"0.0000000000000","ELEMENT_SET_NO":"999","OBJECT_ID":"2020-001AT","RCS_SIZE":"LARGE","ARG_OF_PERICENTER":"58.8615","EPHEMERIS_TYPE":"0","PERIAPSIS":"546.145","MEAN_ANOMALY":"301.2529","COUNTRY_CODE":"US","CLASSIFICATION_TYPE":"U","FILE":"3247523","RA_OF_ASC_NODE":"11.7179","PERIOD":"95.593","NORAD_CAT_ID":"44955","MEAN_MOTION":"15.06390381","SEMIMAJOR_AXIS":"6925.378","OBJECT_NAME":"STARLINK-1069","MEAN_MOTION_DOT":"-0.00000749","TLE_LINE2":"2 44955  53.0551  11.7179 0001585  58.8615 301.2529 15.06390381108519","APOAPSIS":"548.341","ECCENTRICITY":"0.00015850","OBJECT_TYPE":"PAYLOAD","REV_AT_EPOCH":"10851","DECAY_DATE":null,"EPOCH":"2021-12-22T12:36:53.115264","SITE":"AFETR","MEAN_ELEMENT_THEORY":"SGP4","INCLINATION":"53.0551","TIME_SYSTEM":"UTC","LAUNCH_DATE":"2020-01-07","CENTER_NAME":"EARTH"},{"INCLINATION":"53.0549","LAUNCH_DATE":"2020-01-07","TIME_SYSTEM":"UTC","CENTER_NAME":"EARTH","EPOCH":"2021-12-22T12:31:34.673376","DECAY_DATE":null,"SITE":"AFETR","MEAN_ELEMENT_THEORY":"SGP4","MEAN_MOTION_DOT":"-0.00001585","APOAPSIS":"548.304","TLE_LINE2":"2 44956  53.0549  11.7297 0001551  61.5239 298.5906 15.06394711108578","ECCENTRICITY":"0.00015510","OBJECT_TYPE":"PAYLOAD","REV_AT_EPOCH":"10857","SEMIMAJOR_AXIS":"6925.365","OBJECT_NAME":"STARLINK-1070","FILE":"3247523","RA_OF_ASC_NODE":"11.7297","PERIOD":"95.592","NORAD_CAT_ID":"44956","MEAN_MOTION":"15.06394711","MEAN_ANOMALY":"298.5906","COUNTRY_CODE":"US","CLASSIFICATION_TYPE":"U","ELEMENT_SET_NO":"999","OBJECT_ID":"2020-001AU","RCS_SIZE":"LARGE","PERIAPSIS":"546.156","EPHEMERIS_TYPE":"0","ARG_OF_PERICENTER":"61.5239","REF_FRAME":"TEME","GP_ID":"192216905","BSTAR":"-0.00008751400000","MEAN_MOTION_DDOT":"0.0000000000000","TLE_LINE1":"1 44956U 20001AU  21356.52192909 -.00001585  00000-0 -87514-4 0  9995"},{"SITE":"AFETR","DECAY_DATE":null,"EPOCH":"2021-12-22T11:33:12.144384","MEAN_ELEMENT_THEORY":"SGP4","INCLINATION":"53.0561","CENTER_NAME":"EARTH","TIME_SYSTEM":"UTC","LAUNCH_DATE":"2020-01-07","SEMIMAJOR_AXIS":"6925.401","OBJECT_NAME":"STARLINK-1074","TLE_LINE2":"2 44957  53.0561  11.9139 0001547  61.5718 298.5427 15.06382864108560","APOAPSIS":"548.337","MEAN_MOTION_DOT":"-0.00001725","REV_AT_EPOCH":"10856","ECCENTRICITY":"0.00015470","OBJECT_TYPE":"PAYLOAD","MEAN_ANOMALY":"298.5427","CLASSIFICATION_TYPE":"U","COUNTRY_CODE":"US","RA_OF_ASC_NODE":"11.9139","FILE":"3247523","MEAN_MOTION":"15.06382864","PERIOD":"95.593","NORAD_CAT_ID":"44957","REF_FRAME":"TEME","TLE_LINE1":"1 44957U 20001AV  21356.48139056 -.00001725  00000-0 -96982-4 0  9990","MEAN_MOTION_DDOT":"0.0000000000000","BSTAR":"-0.00009698200000","GP_ID":"192215653","ELEMENT_SET_NO":"999","OBJECT_ID":"2020-001AV","ARG_OF_PERICENTER":"61.5718","EPHEMERIS_TYPE":"0","PERIAPSIS":"546.195","RCS_SIZE":"LARGE"},{"INCLINATION":"53.0546","CENTER_NAME":"EARTH","TIME_SYSTEM":"UTC","LAUNCH_DATE":"2020-01-07","SITE":"AFETR","EPOCH":"2021-12-22T11:54:25.438464","DECAY_DATE":null,"MEAN_ELEMENT_THEORY":"SGP4","APOAPSIS":"548.352","TLE_LINE2":"2 44959  53.0546  11.8495 0001629  56.2138 303.9005 15.06396725108561","MEAN_MOTION_DOT":"-0.00001581","REV_AT_EPOCH":"10856","OBJECT_TYPE":"PAYLOAD","ECCENTRICITY":"0.00016290","SEMIMAJOR_AXIS":"6925.359","OBJECT_NAME":"STARLINK-1076","RA_OF_ASC_NODE":"11.8495","FILE":"3247523","MEAN_MOTION":"15.06396725","NORAD_CAT_ID":"44959","PERIOD":"95.592","MEAN_ANOMALY":"303.9005","CLASSIFICATION_TYPE":"U","COUNTRY_CODE":"US","OBJECT_ID":"2020-001AX","ELEMENT_SET_NO":"999","PERIAPSIS":"546.095","ARG_OF_PERICENTER":"56.2138","EPHEMERIS_TYPE":"0","RCS_SIZE":"LARGE","REF_FRAME":"TEME","MEAN_MOTION_DDOT":"0.0000000000000","TLE_LINE1":"1 44959U 20001AX  21356.49612776 -.00001581  00000-0 -87240-4 0  9995","GP_ID":"192216403","BSTAR":"-0.00008724000000"},{"COUNTRY_CODE":"US","CLASSIFICATION_TYPE":"U","MEAN_ANOMALY":"304.0148","PERIOD":"95.593","NORAD_CAT_ID":"44961","MEAN_MOTION":"15.06393216","FILE":"3247523","RA_OF_ASC_NODE":"11.8092","GP_ID":"192216655","BSTAR":"-0.00007549200000","MEAN_MOTION_DDOT":"0.0000000000000","TLE_LINE1":"1 44961U 20001AZ  21356.50349968 -.00001406  00000-0 -75492-4 0  9992","REF_FRAME":"TEME","RCS_SIZE":"LARGE","PERIAPSIS":"546.067","EPHEMERIS_TYPE":"0","ARG_OF_PERICENTER":"56.1001","OBJECT_ID":"2020-001AZ","ELEMENT_SET_NO":"999","MEAN_ELEMENT_THEORY":"SGP4","EPOCH":"2021-12-22T12:05:02.372352","DECAY_DATE":null,"SITE":"AFETR","LAUNCH_DATE":"2020-01-07","TIME_SYSTEM":"UTC","CENTER_NAME":"EARTH","INCLINATION":"53.0554","OBJECT_NAME":"STARLINK-1080","SEMIMAJOR_AXIS":"6925.369","ECCENTRICITY":"0.00016850","OBJECT_TYPE":"PAYLOAD","REV_AT_EPOCH":"10857","MEAN_MOTION_DOT":"-0.00001406","APOAPSIS":"548.401","TLE_LINE2":"2 44961  53.0554  11.8092 0001685  56.1001 304.0148 15.06393216108579"}];
